CATSAT                  
1 60246U 24125J   24198.68755259  .00037208  00000+0  17068-2 0  9996
2 60246  97.3064  52.5632 0053597 170.9140 276.8737 15.19027249    14
2024-130A               
1 60249U 24130A   24201.78089249  .00159694  75184-5  83022-3 0  9999
2 60249  97.4787 271.1950 0329457 188.7285 297.2030 15.31740473   108
2024-130B               
1 60250U 24130B   24201.76542083  .00322034  32780-4  84803-3 0  9991
2 60250  97.4242 271.1884 0194133 171.6564 314.6532 15.70110972    91
NOAA 1                  
1 04793U 70106A   24202.61190503 -.00000014  00000+0  18340-3 0  9996
2 04793 101.4440 253.6103 0031042 271.4166 210.2943 12.54029857453372
NOAA 2 (ITOS-D)         
1 06235U 72082A   24202.62298990 -.00000022  00000+0  15504-3 0  9992
2 06235 102.0157 201.9804 0004469  60.0026  51.9061 12.53182734367694
NOAA 3                  
1 06920U 73086A   24202.60481000 -.00000022  00000+0  17979-3 0  9990
2 06920 102.2766 198.8854 0006355 328.2880 143.9084 12.40368802295533
NOAA 4                  
1 07529U 74089A   24202.60010168 -.00000020  00000+0  16355-3 0  9998
2 07529 101.9883 197.1698 0009429  84.4469  29.3559 12.53181757272267
NOAA 5                  
1 09057U 76077A   24202.58918389 -.00000016  00000+0  23031-3 0  9998
2 09057 102.2088 175.9596 0009520 171.7678 308.2805 12.37802625168286
TIROS N                 
1 11060U 78096A   24202.56433973  .00000486  00000+0  25368-3 0  9992
2 11060  98.5302 241.7086 0011688  99.1378 261.1121 14.18854264579947
NOAA 6                  
1 11416U 79057A   24202.59183923  .00000860  00000+0  31991-3 0  9990
2 11416  98.6277 223.7735 0010549 155.6596 204.5089 14.34580995351048
NOAA 7                  
1 12553U 81059A   24202.57865134  .00000212  00000+0  12631-3 0  9998
2 12553  98.8917 261.9306 0012520  98.9662 261.2930 14.17545366226046
NOAA 8                  
1 13923U 83022A   24202.60639897  .00000459  00000+0  19780-3 0  9996
2 13923  98.7305 202.6304 0015763 132.5798 227.6716 14.29280709151545
NOAA 9                  
1 15427U 84123A   24202.59035781  .00000370  00000+0  20844-3 0  9995
2 15427  99.1186 200.8470 0015069 158.2253 310.8798 14.16624036 44774
NOAA 10                 
1 16969U 86073A   24202.55310253  .00000431  00000+0  18907-3 0  9994
2 16969  98.6422 188.1749 0011130 231.4015 237.8038 14.28653047969919
NOAA 11                 
1 19531U 88089A   24202.50890546  .00000214  00000+0  13071-3 0  9990
2 19531  98.5200 163.6085 0011852 134.6538 225.5605 14.15553795848900
NOAA 12                 
1 21263U 91032A   24202.59742970  .00000295  00000+0  14088-3 0  9991
2 21263  98.5589 192.9616 0012498 263.8965  96.0792 14.26339698725645
NOAA 13                 
1 22739U 93050A   24202.49179025  .00000323  00000+0  19496-3 0  9996
2 22739  98.6076 158.7340 0008819 324.7468  35.3120 14.13241975594952
NOAA 14                 
1 23455U 94089A   24202.55121092  .00000196  00000+0  12392-3 0  9999
2 23455  98.4332 196.7089 0008320 289.3763  70.6511 14.14411616524719
NOAA 15                 
1 25338U 98030A   24202.55113822  .00000510  00000+0  22889-3 0  9995
2 25338  98.5673 228.9795 0009502 222.0620 137.9832 14.26633523361944
NOAA 16                 
1 26536U 00055A   24202.56278297  .00000266  00000+0  16307-3 0  9991
2 26536  98.5295 240.6318 0011304 136.0228 224.1847 14.13603283525299
NOAA 17                 
1 27453U 02032A   24202.61724667  .00000509  00000+0  23361-3 0  9998
2 27453  98.7642 153.1933 0011054 206.9575 153.1031 14.25619745147717
NOAA 18                 
1 28654U 05018A   24202.55419247  .00000450  00000+0  26382-3 0  9998
2 28654  98.8738 279.2420 0013525 332.5552  27.4905 14.13257993987888
NOAA 19                 
1 33591U 09005A   24202.58116737  .00000459  00000+0  27017-3 0  9990
2 33591  99.0454 258.7309 0013656 193.9534 166.1262 14.13052578796083
SUOMI NPP               
1 37849U 11061A   24202.59344645  .00000245  00000+0  13686-3 0  9997
2 37849  98.7222 140.0726 0001557 118.4614 241.6719 14.19532363659610
NOAA 20 (JPSS-1)        
1 43013U 17073A   24202.54005195  .00000211  00000+0  12095-3 0  9991
2 43013  98.7065 139.9037 0002198 107.6092 252.5324 14.19545851345632
NOAA 21 (JPSS-2)        
1 54234U 22150A   24202.57575005  .00000257  00000+0  14270-3 0  9992
2 54234  98.7518 140.0793 0001875  70.1849 289.9529 14.19541437 87718
ISS (ZARYA)             
1 25544U 98067A   24202.87775332  .00019400  00000+0  34543-3 0  9997
2 25544  51.6382 148.4319 0010252  88.1762  10.1699 15.50087295463774
CSS (TIANHE)            
1 48274U 21035A   24202.38673585  .00022334  00000+0  23101-3 0  9994
2 48274  41.4667 240.3439 0002017 103.7617 256.3447 15.64192936184296
ISS (NAUKA)             
1 49044U 21066A   24202.53782917  .00019279  00000+0  34352-3 0  9995
2 49044  51.6377 150.1186 0010166  88.1038 272.1115 15.50072921169171
FREGAT DEB              
1 49271U 11037PF  24202.43707617  .00020751  00000+0  40102-1 0  9992
2 49271  51.6799 252.2609 0997787 198.3976 157.8197 12.19443186139255
CSS (WENTIAN)           
1 53239U 22085A   24202.38673585  .00022334  00000+0  23101-3 0  9997
2 53239  41.4667 240.3439 0002017 103.7617 256.3447 15.64192936183371
CSS (MENGTIAN)          
1 54216U 22143A   24202.38673585  .00022334  00000+0  23101-3 0  9998
2 54216  41.4667 240.3439 0002017 103.7617 256.3447 15.64192936 98057
TIANZHOU-7              
1 58811U 24013A   24202.38673585  .00022334  00000+0  23101-3 0  9991
2 58811  41.4667 240.3439 0002017 103.7617 256.3447 15.64192936183372
PROGRESS-MS 26          
1 58961U 24029A   24202.53782917  .00019279  00000+0  34352-3 0  9995
2 58961  51.6377 150.1186 0010166  88.1038 272.1115 15.50072921 24089
CREW DRAGON 8           
1 59097U 24042A   24202.53782917  .00019279  00000+0  34352-3 0  9991
2 59097  51.6377 150.1186 0010166  88.1038 272.1115 15.50072921 21290
SOYUZ-MS 25             
1 59294U 24055A   24202.53782917  .00019279  00000+0  34352-3 0  9994
2 59294  51.6377 150.1186 0010166  88.1038 272.1115 15.50072921 17823
MICROORBITER-1          
1 59483U 98067WF  24202.23811816  .00253645  00000+0  14918-2 0  9998
2 59483  51.6275 142.8247 0008329 100.5764 259.6175 15.76896797 15679
CURTIS                  
1 59507U 98067WG  24202.28122706  .00140989  00000+0  11741-2 0  9990
2 59507  51.6296 144.6248 0007130  90.1785 270.0029 15.69119856 15666
KASHIWA                 
1 59508U 98067WH  24202.20387380  .00408871  00000+0  18511-2 0  9993
2 59508  51.6250 141.8223 0008470 104.0370 256.1574 15.82240173 15697
1998-067WJ              
1 59559U 98067WJ  24202.54847307  .00147029  00000+0  13064-2 0  9999
2 59559  51.6322 144.1836 0006444  70.0891 290.0799 15.67519162 14569
1998-067WK              
1 59560U 98067WK  24202.20186831  .00683631  19393-3  22598-2 0  9997
2 59560  51.6243 141.0557 0006882 104.1110 256.0661 15.89783407 14499
1998-067WL              
1 59561U 98067WL  24202.26894808  .00054991  00000+0  69895-3 0  9998
2 59561  51.6334 148.3224 0005102  69.5320 290.6220 15.58826438 14452
BURSTCUBE               
1 59562U 98067WM  24202.22851895  .00143058  00000+0  12704-2 0  9993
2 59562  51.6331 145.7997 0007498  89.5990 270.5866 15.67538781 14491
SNOOPI                  
1 59563U 98067WN  24202.23500952  .00116375  00000+0  11509-2 0  9994
2 59563  51.6342 146.6006 0006711  90.9667 269.2097 15.64969672 14483
SHENZHOU-18 (SZ-18)     
1 59591U 24078A   24202.38673585  .00022334  00000+0  23101-3 0  9998
2 59591  41.4667 240.3439 0002017 103.7617 256.3447 15.64192936 13246
1998-067WP              
1 59596U 98067WP  24202.36348654  .00210522  00000+0  14911-2 0  9992
2 59596  51.6304 143.6838 0007205  79.0928 281.0881 15.72753514 14561
1998-067WQ              
1 59597U 98067WQ  24202.42073342  .00208304  00000+0  14606-2 0  9995
2 59597  51.6344 143.3354 0007377  79.2989 280.8840 15.72995440 14541
SZ-17 MODULE            
1 59624U 23164C   24202.55812175  .00047875  00000+0  41742-3 0  9997
2 59624  41.4751 238.1534 0006083 134.8516 225.2820 15.68133605 12777
PROGRESS-MS 27          
1 59913U 24103A   24202.53782917  .00019279  00000+0  34352-3 0  9996
2 59913  51.6377 150.1186 0010166  88.1038 272.1115 15.50072921  7426
STARLINER CFT-1         
1 59968U 24109A   24202.53782917  .00019279  00000+0  34352-3 0  9992
2 59968  51.6377 150.1186 0010166  88.1038 272.1115 15.50072921  6335
